{
  "type": "FeatureCollection",
  "features": [
    {
      "type": "Feature",
      "properties": {
        "norad_id": 56759,
        "name": "NVS-01 (IRNSS-1J)",
        "group": "gnss",
        "lat": -0.2959471464723737,
        "lon": 78.49923467567659,
        "alt_km": 35822.22112181053,
        "timestamp": "2025-12-20T14:38:02.214309+00:00",
        "meta_object_name": "NVS-01 (IRNSS-1J)",
        "meta_object_id": "2023-076A",
        "meta_epoch": "2025-12-20T01:11:38.431968",
        "meta_mean_motion": 1.00273974,
        "meta_eccentricity": 0.00087488,
        "meta_inclination": 2.6012,
        "meta_ra_of_asc_node": 251.3416,
        "meta_arg_of_pericenter": 16.0949,
        "meta_mean_anomaly": 328.9103,
        "meta_ephemeris_type": 0,
        "meta_classification_type": "U",
        "meta_norad_cat_id": 56759,
        "meta_element_set_no": 999,
        "meta_rev_at_epoch": 931,
        "meta_bstar": 0,
        "meta_mean_motion_dot": -3.09e-06,
        "meta_mean_motion_ddot": 0,
        "tle_line1": "1 56759U 23076A   25354.04975037 -.00000309  00000+0  00000+0 0  9995",
        "tle_line2": "2 56759   2.6012 251.3416 0008748  16.0949 328.9103  1.00273974  9315"
      },
      "geometry": {
        "type": "Point",
        "coordinates": [
          78.49923467567659,
          -0.2959471464723737
        ]
      }
    },
    {
      "type": "Feature",
      "properties": {
        "norad_id": 57517,
        "name": "COSMOS 2569 (703K)",
        "group": "gnss",
        "lat": 58.68728230335548,
        "lon": -150.69631195485766,
        "alt_km": 19150.68291497308,
        "timestamp": "2025-12-20T14:38:02.214321+00:00",
        "meta_object_name": "COSMOS 2569 (703K)",
        "meta_object_id": "2023-114A",
        "meta_epoch": "2025-12-19T12:40:20.363808",
        "meta_mean_motion": 2.13104046,
        "meta_eccentricity": 0.0010771,
        "meta_inclination": 65.1977,
        "meta_ra_of_asc_node": 78.6841,
        "meta_arg_of_pericenter": 287.0303,
        "meta_mean_anomaly": 72.8809,
        "meta_ephemeris_type": 0,
        "meta_classification_type": "U",
        "meta_norad_cat_id": 57517,
        "meta_element_set_no": 999,
        "meta_rev_at_epoch": 1843,
        "meta_bstar": 0,
        "meta_mean_motion_dot": -2.7e-07,
        "meta_mean_motion_ddot": 0,
        "tle_line1": "1 57517U 23114A   25353.52801347 -.00000027  00000+0  00000+0 0  9992",
        "tle_line2": "2 57517  65.1977  78.6841 0010771 287.0303  72.8809  2.13104046 18436"
      },
      "geometry": {
        "type": "Point",
        "coordinates": [
          -150.69631195485766,
          58.68728230335548
        ]
      }
    },
    {
      "type": "Feature",
      "properties": {
        "norad_id": 58654,
        "name": "BEIDOU-3 M28 (C50)",
        "group": "gnss",
        "lat": 54.010827061167014,
        "lon": 138.79430338090893,
        "alt_km": 21529.074602054094,
        "timestamp": "2025-12-20T14:38:02.214332+00:00",
        "meta_object_name": "BEIDOU-3 M28 (C50)",
        "meta_object_id": "2023-207A",
        "meta_epoch": "2025-12-18T08:16:11.764704",
        "meta_mean_motion": 1.86229821,
        "meta_eccentricity": 0.00026501,
        "meta_inclination": 55.5892,
        "meta_ra_of_asc_node": 68.4116,
        "meta_arg_of_pericenter": 272.4264,
        "meta_mean_anomaly": 87.5728,
        "meta_ephemeris_type": 0,
        "meta_classification_type": "U",
        "meta_norad_cat_id": 58654,
        "meta_element_set_no": 999,
        "meta_rev_at_epoch": 1347,
        "meta_bstar": 0,
        "meta_mean_motion_dot": -6.6e-07,
        "meta_mean_motion_ddot": 0,
        "tle_line1": "1 58654U 23207A   25352.34458061 -.00000066  00000+0  00000+0 0  9991",
        "tle_line2": "2 58654  55.5892  68.4116 0002650 272.4264  87.5728  1.86229821 13471"
      },
      "geometry": {
        "type": "Point",
        "coordinates": [
          138.79430338090893,
          54.010827061167014
        ]
      }
    },
    {
      "type": "Feature",
      "properties": {
        "norad_id": 58655,
        "name": "BEIDOU-3 M26 (C48)",
        "group": "gnss",
        "lat": -27.745933540172274,
        "lon": -90.56296166162566,
        "alt_km": 21523.50619283049,
        "timestamp": "2025-12-20T14:38:02.214343+00:00",
        "meta_object_name": "BEIDOU-3 M26 (C48)",
        "meta_object_id": "2023-207B",
        "meta_epoch": "2025-12-19T05:11:10.015296",
        "meta_mean_motion": 1.86231346,
        "meta_eccentricity": 0.0004042,
        "meta_inclination": 55.592,
        "meta_ra_of_asc_node": 68.3684,
        "meta_arg_of_pericenter": 258.4158,
        "meta_mean_anomaly": 101.5732,
        "meta_ephemeris_type": 0,
        "meta_classification_type": "U",
        "meta_norad_cat_id": 58655,
        "meta_element_set_no": 999,
        "meta_rev_at_epoch": 1347,
        "meta_bstar": 0,
        "meta_mean_motion_dot": -5.7e-07,
        "meta_mean_motion_ddot": 0,
        "tle_line1": "1 58655U 23207B   25353.21608814 -.00000057  00000+0  00000+0 0  9992",
        "tle_line2": "2 58655  55.5920  68.3684 0004042 258.4158 101.5732  1.86231346 13473"
      },
      "geometry": {
        "type": "Point",
        "coordinates": [
          -90.56296166162566,
          -27.745933540172274
        ]
      }
    },
    {
      "type": "Feature",
      "properties": {
        "norad_id": 59598,
        "name": "GSAT0225 (GALILEO 29)",
        "group": "gnss",
        "lat": 49.517840620094496,
        "lon": 161.11101688637538,
        "alt_km": 23219.161355347453,
        "timestamp": "2025-12-20T14:38:02.214354+00:00",
        "meta_object_name": "GSAT0225 (GALILEO 29)",
        "meta_object_id": "2024-079A",
        "meta_epoch": "2025-12-19T07:40:30.040032",
        "meta_mean_motion": 1.7047502,
        "meta_eccentricity": 0.0002191,
        "meta_inclination": 55.0052,
        "meta_ra_of_asc_node": 106.1117,
        "meta_arg_of_pericenter": 185.2617,
        "meta_mean_anomaly": 171.1938,
        "meta_ephemeris_type": 0,
        "meta_classification_type": "U",
        "meta_norad_cat_id": 59598,
        "meta_element_set_no": 999,
        "meta_rev_at_epoch": 1024,
        "meta_bstar": 0,
        "meta_mean_motion_dot": -6e-08,
        "meta_mean_motion_ddot": 0,
        "tle_line1": "1 59598U 24079A   25353.31979213 -.00000006  00000+0  00000+0 0  9996",
        "tle_line2": "2 59598  55.0052 106.1117 0002191 185.2617 171.1938  1.70475020 10248"
      },
      "geometry": {
        "type": "Point",
        "coordinates": [
          161.11101688637538,
          49.517840620094496
        ]
      }
    },
    {
      "type": "Feature",
      "properties": {
        "norad_id": 59600,
        "name": "GSAT0227 (GALILEO 30)",
        "group": "gnss",
        "lat": -34.9637421378589,
        "lon": 76.77665057940939,
        "alt_km": 23234.57650946644,
        "timestamp": "2025-12-20T14:38:02.214369+00:00",
        "meta_object_name": "GSAT0227 (GALILEO 30)",
        "meta_object_id": "2024-079C",
        "meta_epoch": "2025-12-19T12:12:51.636672",
        "meta_mean_motion": 1.70474897,
        "meta_eccentricity": 0.0002924,
        "meta_inclination": 55.0006,
        "meta_ra_of_asc_node": 106.105,
        "meta_arg_of_pericenter": 116.8359,
        "meta_mean_anomaly": 243.1562,
        "meta_ephemeris_type": 0,
        "meta_classification_type": "U",
        "meta_norad_cat_id": 59600,
        "meta_element_set_no": 999,
        "meta_rev_at_epoch": 1030,
        "meta_bstar": 0,
        "meta_mean_motion_dot": -6e-08,
        "meta_mean_motion_ddot": 0,
        "tle_line1": "1 59600U 24079C   25353.50893098 -.00000006  00000+0  00000+0 0  9997",
        "tle_line2": "2 59600  55.0006 106.1050 0002924 116.8359 243.1562  1.70474897 10305"
      },
      "geometry": {
        "type": "Point",
        "coordinates": [
          76.77665057940939,
          -34.9637421378589
        ]
      }
    },
    {
      "type": "Feature",
      "properties": {
        "norad_id": 61182,
        "name": "GSAT0232 (GALILEO 32)",
        "group": "gnss",
        "lat": 24.241983589014445,
        "lon": 28.016611768645163,
        "alt_km": 23216.252886744,
        "timestamp": "2025-12-20T14:38:02.214396+00:00",
        "meta_object_name": "GSAT0232 (GALILEO 32)",
        "meta_object_id": "2024-167A",
        "meta_epoch": "2025-12-20T01:45:16.724736",
        "meta_mean_motion": 1.70473657,
        "meta_eccentricity": 0.00018786,
        "meta_inclination": 55.2386,
        "meta_ra_of_asc_node": 226.2297,
        "meta_arg_of_pericenter": 206.8342,
        "meta_mean_anomaly": 333.9154,
        "meta_ephemeris_type": 0,
        "meta_classification_type": "U",
        "meta_norad_cat_id": 61182,
        "meta_element_set_no": 999,
        "meta_rev_at_epoch": 782,
        "meta_bstar": 0,
        "meta_mean_motion_dot": 7e-07,
        "meta_mean_motion_ddot": 0,
        "tle_line1": "1 61182U 24167A   25354.07311024  .00000070  00000+0  00000+0 0  9990",
        "tle_line2": "2 61182  55.2386 226.2297 0001878 206.8342 333.9154  1.70473657  7823"
      },
      "geometry": {
        "type": "Point",
        "coordinates": [
          28.016611768645163,
          24.241983589014445
        ]
      }
    }
  ]
}